[{"OBJECT_NAME":"AETHER-7","OBJECT_ID":"2026-004R","EPOCH":"2026-03-09T23:38:02.128704","MEAN_MOTION":14.87800631,"ECCENTRICITY":0.00064671,"INCLINATION":97.8004,"RA_OF_ASC_NODE":69.1783,"ARG_OF_PERICENTER":100.8073,"MEAN_ANOMALY":259.3872,"EPHEMERIS_TYPE":0,"CLASSIFICATION_TYPE":"U","NORAD_CAT_ID":67378,"ELEMENT_SET_NO":999,"REV_AT_EPOCH":853,"BSTAR":0.00014118704,"MEAN_MOTION_DOT":1.235e-5,"MEAN_MOTION_DDOT":0},{"OBJECT_NAME":"ESSAIM-1","OBJECT_ID":"2004-049C","EPOCH":"2026-03-09T14:04:01.931808","MEAN_MOTION":14.86068731,"ECCENTRICITY":0.0001387,"INCLINATION":98.3189,"RA_OF_ASC_NODE":293.2189,"ARG_OF_PERICENTER":70.7658,"MEAN_ANOMALY":289.3706,"EPHEMERIS_TYPE":0,"CLASSIFICATION_TYPE":"U","NORAD_CAT_ID":28494,"ELEMENT_SET_NO":999,"REV_AT_EPOCH":14349,"BSTAR":0.00020144,"MEAN_MOTION_DOT":1.704e-5,"MEAN_MOTION_DDOT":0}]
